NORAD_CAT_ID,OBJECT_NAME,OBJECT_TYPE,EPOCH,MEAN_MOTION,ECCENTRICITY,INCLINATION,RA_OF_ASC_NODE,ARG_OF_PERICENTER,MEAN_ANOMALY,BSTAR,MEAN_MOTION_DOT,MEAN_MOTION_DDOT,TLE_LINE0,TLE_LINE1,TLE_LINE2,SEMIMAJOR_AXIS,PERIOD,APOGEE,PERIGEE,DECAYED
53729.0,STARLINK-4651,PAYLOAD,2023-02-28 17:59:41,15.08858956,0.0001171,53.218,174.4984,117.3221,242.7891,4.9394e-05,4.99e-06,0.0,0 STARLINK-4651,1 53729U 22107AF  23059.74978078  .00000499  00000-0  49394-4 0  9992,2 53729  53.2180 174.4984 0001171 117.3221 242.7891 15.08858956 27772,6917.822,95.436,540.498,538.877,0.0
53729.0,STARLINK-4651,PAYLOAD,2023-03-01 00:21:15,15.08830682,0.0001985,53.2178,173.3103,86.2686,273.8533,-1.5184e-05,-5.3e-06,0.0,0 STARLINK-4651,1 53729U 22107AF  23060.01476570 -.00000530  00000-0 -15184-4 0  9992,2 53729  53.2178 173.3103 0001985  86.2686 273.8533 15.08830682 27181,6917.909,95.438,541.147,538.401,0.0
53729.0,STARLINK-4651,PAYLOAD,2023-03-01 11:28:59,15.08810172,0.0001614,53.2196,171.2329,97.6873,262.4303,-0.00023187,-3.973e-05,0.0,0 STARLINK-4651,1 53729U 22107AF  23060.47846929 -.00003973  00000-0 -23187-3 0  9996,2 53729  53.2196 171.2329 0001614  97.6873 262.4303 15.08810172 27250,6917.972,95.439,540.953,538.72,0.0
53729.0,STARLINK-4651,PAYLOAD,2023-03-01 13:04:23,15.08808908,0.0001537,53.2189,170.9315,108.3946,251.7214,-0.00025462,-4.334e-05,0.0,0 STARLINK-4651,1 53729U 22107AF  23060.54471087 -.00004334  00000-0 -25462-3 0  9993,2 53729  53.2189 170.9315 0001537 108.3946 251.7214 15.08808908 27894,6917.975,95.44,540.904,538.777,0.0
53729.0,STARLINK-4651,PAYLOAD,2023-03-02 00:12:05,15.08819326,0.0001525,53.2192,168.8508,95.5066,264.61,-0.00029237,-4.935e-05,0.0,0 STARLINK-4651,1 53729U 22107AF  23061.00839286 -.00004935  00000-0 -29237-3 0  9995,2 53729  53.2192 168.8508 0001525  95.5066 264.6100 15.08819326 27337,6917.944,95.439,540.864,538.754,0.0
53729.0,STARLINK-4651,PAYLOAD,2023-03-02 16:05:55,15.08838389,0.0001223,53.2182,165.8759,107.2867,252.8259,3.4679e-05,2.64e-06,0.0,0 STARLINK-4651,1 53729U 22107AF  23061.67077885  .00000264  00000-0  34679-4 0  9993,2 53729  53.2182 165.8759 0001223 107.2867 252.8259 15.08838389 28061,6917.885,95.438,540.596,538.904,0.0
53729.0,STARLINK-4651,PAYLOAD,2023-03-03 06:24:22,15.08843995,0.0001696,53.2187,163.2001,87.1505,272.9682,0.00029041,4.337e-05,0.0,0 STARLINK-4651,1 53729U 22107AF  23062.26693162  .00004337  00000-0  29041-3 0  9992,2 53729  53.2187 163.2001 0001696  87.1505 272.9682 15.08843995 27529,6917.868,95.437,540.906,538.56,0.0
53729.0,STARLINK-4651,PAYLOAD,2023-03-03 11:10:31,15.08851034,0.0001865,53.2195,162.3097,103.8298,256.2902,0.00054802,8.447e-05,0.0,0 STARLINK-4651,1 53729U 22107AF  23062.46564011  .00008447  00000-0  54802-3 0  9993,2 53729  53.2195 162.3097 0001865 103.8298 256.2902 15.08851034 27552,6917.847,95.437,541.002,538.421,0.0
53729.0,STARLINK-4651,PAYLOAD,2023-03-03 15:56:39,15.08869125,0.0001381,53.2182,161.4146,88.7456,271.3694,0.00059139,9.144e-05,0.0,0 STARLINK-4651,1 53729U 22107AF  23062.66434625  .00009144  00000-0  59139-3 0  9995,2 53729  53.2182 161.4146 0001381  88.7456 271.3694 15.08869125 27582,6917.791,95.436,540.612,538.701,0.0
53729.0,STARLINK-4651,PAYLOAD,2023-03-04 06:15:11,15.08826664,0.000118,53.2195,158.7411,102.2669,257.8455,3.8859e-07,-2.82e-06,0.0,0 STARLINK-4651,1 53729U 22107AF  23063.26054771 -.00000282  00000-0  38859-6 0  9996,2 53729  53.2195 158.7411 0001180 102.2669 257.8455 15.08826664 27670,6917.921,95.438,540.602,538.97,0.0
53729.0,STARLINK-4651,PAYLOAD,2023-03-04 11:01:19,15.08836769,0.0001433,53.2174,157.8483,105.9524,254.1626,0.00011413,1.529e-05,0.0,0 STARLINK-4651,1 53729U 22107AF  23063.45925835  .00001529  00000-0  11413-3 0  9993,2 53729  53.2174 157.8483 0001433 105.9524 254.1626 15.08836769 28338,6917.89,95.438,540.747,538.764,0.0
53729.0,STARLINK-4651,PAYLOAD,2023-03-04 12:36:42,15.08841744,0.0001523,53.2181,157.5508,109.009,251.1067,5.4936e-05,5.86e-06,0.0,0 STARLINK-4651,1 53729U 22107AF  23063.52549658  .00000586  00000-0  54936-4 0  9996,2 53729  53.2181 157.5508 0001523 109.0090 251.1067 15.08841744 27710,6917.875,95.437,540.794,538.686,0.0
53729.0,STARLINK-4651,PAYLOAD,2023-03-04 15:47:28,15.08852586,0.0001203,53.2174,156.9545,106.5035,253.609,0.00010336,1.358e-05,0.0,0 STARLINK-4651,1 53729U 22107AF  23063.65796748  .00001358  00000-0  10336-3 0  9997,2 53729  53.2174 156.9545 0001203 106.5035 253.6090 15.08852586 27733,6917.842,95.437,540.539,538.875,0.0
53729.0,STARLINK-4651,PAYLOAD,2023-03-04 23:44:24,15.08845931,0.0001119,53.2175,155.4682,99.2334,260.8785,-1.5174e-05,-5.29e-06,0.0,0 STARLINK-4651,1 53729U 22107AF  23063.98917302 -.00000529  00000-0 -15174-4 0  9991,2 53729  53.2175 155.4682 0001119  99.2334 260.8785 15.08845931 27788,6917.862,95.437,540.501,538.953,0.0
53729.0,STARLINK-4651,PAYLOAD,2023-03-05 09:16:42,15.0885759,0.0001336,53.2174,153.6831,109.839,250.2747,-0.00023228,-3.985e-05,0.0,0 STARLINK-4651,1 53729U 22107AF  23064.38660877 -.00003985  00000-0 -23228-3 0  9995,2 53729  53.2174 153.6831 0001336 109.8390 250.2747 15.08857590 28476,6917.827,95.436,540.616,538.767,0.0
53729.0,STARLINK-4651,PAYLOAD,2023-03-06 05:56:43,15.08839774,0.0001404,53.2172,149.8206,95.4101,264.7051,0.00016307,2.308e-05,0.0,0 STARLINK-4651,1 53729U 22107AF  23065.24772637  .00002308  00000-0  16307-3 0  9995,2 53729  53.2172 149.8206 0001404  95.4101 264.7051 15.08839774 27979,6917.881,95.438,540.717,538.775,0.0
53729.0,STARLINK-4651,PAYLOAD,2023-03-06 15:29:01,15.08857862,0.0001221,53.2178,148.0338,95.2072,264.906,0.00035222,5.325e-05,0.0,0 STARLINK-4651,1 53729U 22107AF  23065.64516049  .00005325  00000-0  35222-3 0  9991,2 53729  53.2178 148.0338 0001221  95.2072 264.9060 15.08857862 28032,6917.826,95.436,540.535,538.846,0.0
53729.0,STARLINK-4651,PAYLOAD,2023-03-06 21:50:35,15.08837125,0.0001112,53.2174,146.8432,85.0026,275.1093,4.3772e-05,4.09e-06,0.0,0 STARLINK-4651,1 53729U 22107AF  23065.91012979  .00000409  00000-0  43772-4 0  9992,2 53729  53.2174 146.8432 0001112  85.0026 275.1093 15.08837125 28708,6917.889,95.438,540.523,538.985,0.0
53729.0,STARLINK-4651,PAYLOAD,2023-03-07 05:47:31,15.08828022,0.0001062,53.2175,145.3603,83.8951,276.2163,-9.2937e-05,-1.766e-05,0.0,0 STARLINK-4651,1 53729U 22107AF  23066.24133619 -.00001766  00000-0 -92937-4 0  9990,2 53729  53.2175 145.3603 0001062  83.8951 276.2163 15.08828022 28122,6917.917,95.438,540.517,539.047,0.0
53729.0,STARLINK-4651,PAYLOAD,2023-03-07 08:58:17,15.08838436,0.000144,53.2188,144.766,98.9708,261.1447,9.6924e-05,1.255e-05,0.0,0 STARLINK-4651,1 53729U 22107AF  23066.37381314  .00001255  00000-0  96924-4 0  9992,2 53729  53.2188 144.7660 0001440  98.9708 261.1447 15.08838436 28149,6917.885,95.438,540.746,538.754,0.0
53729.0,STARLINK-4651,PAYLOAD,2023-03-07 15:19:49,15.08853471,0.0001168,53.2177,143.5741,89.4185,270.6941,0.000552,8.511e-05,0.0,0 STARLINK-4651,1 53729U 22107AF  23066.63876864  .00008511  00000-0  55200-3 0  9993,2 53729  53.2177 143.5741 0001168  89.4185 270.6941 15.08853471 28189,6917.839,95.437,540.512,538.896,0.0
53729.0,STARLINK-4651,PAYLOAD,2023-03-07 21:41:23,15.0882213,0.0001645,53.2176,142.383,88.4487,271.6694,-6.4074e-06,-3.9e-06,0.0,0 STARLINK-4651,1 53729U 22107AF  23066.90373991 -.00000390  00000-0 -64074-5 0  9996,2 53729  53.2176 142.3830 0001645  88.4487 271.6694 15.08822130 28856,6917.935,95.439,540.938,538.662,0.0
53729.0,STARLINK-4651,PAYLOAD,2023-03-08 04:02:56,15.08819111,0.0002066,53.2173,141.1944,89.0855,271.0374,0.00015993,2.257e-05,0.0,0 STARLINK-4651,1 53729U 22107AF  23067.16870653  .00002257  00000-0  15993-3 0  9998,2 53729  53.2173 141.1944 0002066  89.0855 271.0374 15.08819111 28269,6917.944,95.439,541.238,538.38,0.0
53729.0,STARLINK-4651,PAYLOAD,2023-03-08 21:32:10,15.08862884,0.0001372,53.2165,137.9263,99.7361,260.3786,0.0028406,0.00045239,0.0,0 STARLINK-4651,1 53729U 22107AF  23067.89734835  .00045239  00000-0  28406-2 0  9998,2 53729  53.2165 137.9263 0001372  99.7361 260.3786 15.08862884 28371,6917.81,95.436,540.625,538.726,0.0
53729.0,STARLINK-4651,PAYLOAD,2023-03-09 11:50:38,15.08888148,0.0001422,53.217,135.2502,96.2962,263.8193,0.0020184,0.00032024,0.0,0 STARLINK-4651,1 53729U 22107AF  23068.49349545  .00032024  00000-0  20184-2 0  9998,2 53729  53.2170 135.2502 0001422  96.2962 263.8193 15.08888148 28460,6917.733,95.435,540.582,538.615,0.0
53729.0,STARLINK-4651,PAYLOAD,2023-03-09 21:22:56,15.0888089,0.0001461,53.2159,133.4648,83.5788,276.5371,0.0013521,0.0002132,0.0,0 STARLINK-4651,1 53729U 22107AF  23068.89093018  .00021320  00000-0  13521-2 0  9997,2 53729  53.2159 133.4648 0001461  83.5788 276.5371 15.08880890 29158,6917.755,95.435,540.631,538.61,0.0
53729.0,STARLINK-4651,PAYLOAD,2023-03-10 10:06:01,15.08863794,0.0001968,53.2164,131.0863,85.2371,274.8846,0.0014493,0.00022868,0.0,0 STARLINK-4651,1 53729U 22107AF  23069.42084777  .00022868  00000-0  14493-2 0  9996,2 53729  53.2164 131.0863 0001968  85.2371 274.8846 15.08863794 28607,6917.808,95.436,541.034,538.311,0.0
53729.0,STARLINK-4651,PAYLOAD,2023-03-10 21:13:43,15.08851883,0.0001982,53.2169,129.0043,98.0489,262.0728,0.00090277,0.00014113,0.0,0 STARLINK-4651,1 53729U 22107AF  23069.88452854  .00014113  00000-0  90277-3 0  9990,2 53729  53.2169 129.0043 0001982  98.0489 262.0728 15.08851883 29309,6917.844,95.437,541.08,538.338,0.0
53729.0,STARLINK-4651,PAYLOAD,2023-03-11 03:35:16,15.08820929,0.0002207,53.2161,127.8151,112.7357,247.3869,0.00065664,0.00010172,0.0,0 STARLINK-4651,1 53729U 22107AF  23070.14949453  .00010172  00000-0  65664-3 0  9990,2 53729  53.2161 127.8151 0002207 112.7357 247.3869 15.08820929 28719,6917.939,95.439,541.33,538.277,0.0
53729.0,STARLINK-4651,PAYLOAD,2023-03-11 09:56:49,15.08819037,0.0001884,53.2156,126.6257,104.5782,255.5419,0.0016247,0.00025649,0.0,0 STARLINK-4651,1 53729U 22107AF  23070.41445883  .00025649  00000-0  16247-2 0  9995,2 53729  53.2156 126.6257 0001884 104.5782 255.5419 15.08819037 29382,6917.944,95.439,541.113,538.506,0.0
